{"type": "FeatureCollection", "features": [ {"type": "Feature", "properties": {"norad_id": 42987, "name": "SKYSAT-C11", "group": "resource", "lat": -60.269344709222224, "lon": 142.24126077880837, "alt_km": 431.5803708522262, "timestamp": "2025-12-17T10:52:54.006526+00:00", "meta": {"OBJECT_NAME": "SKYSAT-C11", "OBJECT_ID": "2017-068A", "EPOCH": "2025-12-16T22:43:52.701600", "MEAN_MOTION": 15.47625729, "ECCENTRICITY": 0.00011852, "INCLINATION": 97.4136, "RA_OF_ASC_NODE": 128.543, "ARG_OF_PERICENTER": 104.0005, "MEAN_ANOMALY": 256.1377, "EPHEMERIS_TYPE": 0, "CLASSIFICATION_TYPE": "U", "NORAD_CAT_ID": 42987, "ELEMENT_SET_NO": 999, "REV_AT_EPOCH": 45496, "BSTAR": 0.00037404621, "MEAN_MOTION_DOT": 0.00019223, "MEAN_MOTION_DDOT": 0}, "tle": {"line1": "1 42987U 17068A   25350.94713775  .00019223  00000+0  37405-3 0  9998", "line2": "2 42987  97.4136 128.5430 0001185 104.0005 256.1377 15.47625729454967"}}, "geometry": {"type": "Point", "coordinates": [142.24126077880837, -60.269344709222224]}}, {"type": "Feature", "properties": {"norad_id": 42988, "name": "SKYSAT-C10", "group": "resource", "lat": 61.11093642728703, "lon": -44.01081859057491, "alt_km": 460.1577611372686, "timestamp": "2025-12-17T10:52:54.006537+00:00", "meta": {"OBJECT_NAME": "SKYSAT-C10", "OBJECT_ID": "2017-068B", "EPOCH": "2025-12-16T21:49:46.712352", "MEAN_MOTION": 15.32152738, "ECCENTRICITY": 0.00054416, "INCLINATION": 97.4255, "RA_OF_ASC_NODE": 121.7718, "ARG_OF_PERICENTER": 92.0534, "MEAN_ANOMALY": 268.133, "EPHEMERIS_TYPE": 0, "CLASSIFICATION_TYPE": "U", "NORAD_CAT_ID": 42988, "ELEMENT_SET_NO": 999, "REV_AT_EPOCH": 45443, "BSTAR": 0.00030769871, "MEAN_MOTION_DOT": 9.479e-05, "MEAN_MOTION_DDOT": 0}, "tle": {"line1": "1 42988U 17068B   25350.90956843  .00009479  00000+0  30770-3 0  9990", "line2": "2 42988  97.4255 121.7718 0005441  92.0534 268.1330 15.32152738454439"}}, "geometry": {"type": "Point", "coordinates": [-44.01081859057491, 61.11093642728703]}}, {"type": "Feature", "properties": {"norad_id": 42989, "name": "SKYSAT-C9", "group": "resource", "lat": 32.71035632940326, "lon": 116.94382426751231, "alt_km": 449.96389265326707, "timestamp": "2025-12-17T10:52:54.006547+00:00", "meta": {"OBJECT_NAME": "SKYSAT-C9", "OBJECT_ID": "2017-068C", "EPOCH": "2025-12-16T22:13:54.408288", "MEAN_MOTION": 15.36157343, "ECCENTRICITY": 0.00106117, "INCLINATION": 97.4188, "RA_OF_ASC_NODE": 121.2131, "ARG_OF_PERICENTER": 74.3186, "MEAN_ANOMALY": 285.9228, "EPHEMERIS_TYPE": 0, "CLASSIFICATION_TYPE": "U", "NORAD_CAT_ID": 42989, "ELEMENT_SET_NO": 999, "REV_AT_EPOCH": 45472, "BSTAR": 0.00031485502, "MEAN_MOTION_DOT": 0.00011033, "MEAN_MOTION_DDOT": 0}, "tle": {"line1": "1 42989U 17068C   25350.92632417  .00011033  00000+0  31486-3 0  9995", "line2": "2 42989  97.4188 121.2131 0010611  74.3186 285.9228 15.36157343454726"}}, "geometry": {"type": "Point", "coordinates": [116.94382426751231, 32.71035632940326]}}, {"type": "Feature", "properties": {"norad_id": 42990, "name": "SKYSAT-C8", "group": "resource", "lat": -48.684118181751735, "lon": 130.00918500511355, "alt_km": 472.85162597798444, "timestamp": "2025-12-17T10:52:54.006557+00:00", "meta": {"OBJECT_NAME": "SKYSAT-C8", "OBJECT_ID": "2017-068D", "EPOCH": "2025-12-16T22:33:49.120704", "MEAN_MOTION": 15.33014294, "ECCENTRICITY": 0.00013003, "INCLINATION": 97.4278, "RA_OF_ASC_NODE": 120.9584, "ARG_OF_PERICENTER": 327.9576, "MEAN_ANOMALY": 32.1587, "EPHEMERIS_TYPE": 0, "CLASSIFICATION_TYPE": "U", "NORAD_CAT_ID": 42990, "ELEMENT_SET_NO": 999, "REV_AT_EPOCH": 45435, "BSTAR": 0.00030540459, "MEAN_MOTION_DOT": 9.663e-05, "MEAN_MOTION_DDOT": 0}, "tle": {"line1": "1 42990U 17068D   25350.94015186  .00009663  00000+0  30540-3 0  9993", "line2": "2 42990  97.4278 120.9584 0001300 327.9576  32.1587 15.33014294454354"}}, "geometry": {"type": "Point", "coordinates": [130.00918500511355, -48.684118181751735]}}, {"type": "Feature", "properties": {"norad_id": 42991, "name": "SKYSAT-C7", "group": "resource", "lat": 23.432839777918122, "lon": -54.24714991849724, "alt_km": 470.27652971925, "timestamp": "2025-12-17T10:52:54.006567+00:00", "meta": {"OBJECT_NAME": "SKYSAT-C7", "OBJECT_ID": "2017-068E", "EPOCH": "2025-12-16T21:39:55.196352", "MEAN_MOTION": 15.32415541, "ECCENTRICITY": 0.00074142, "INCLINATION": 97.4284, "RA_OF_ASC_NODE": 121.9585, "ARG_OF_PERICENTER": 44.0512, "MEAN_ANOMALY": 316.1319, "EPHEMERIS_TYPE": 0, "CLASSIFICATION_TYPE": "U", "NORAD_CAT_ID": 42991, "ELEMENT_SET_NO": 999, "REV_AT_EPOCH": 45441, "BSTAR": 0.00030082297, "MEAN_MOTION_DOT": 9.346e-05, "MEAN_MOTION_DDOT": 0}, "tle": {"line1": "1 42991U 17068E   25350.90272218  .00009346  00000+0  30082-3 0  9990", "line2": "2 42991  97.4284 121.9585 0007414  44.0512 316.1319 15.32415541454417"}}, "geometry": {"type": "Point", "coordinates": [-54.24714991849724, 23.432839777918122]}}, {"type": "Feature", "properties": {"norad_id": 42992, "name": "SKYSAT-C6", "group": "resource", "lat": -76.66497910121598, "lon": -90.46873757753202, "alt_km": 481.87235884966776, "timestamp": "2025-12-17T10:52:54.006577+00:00", "meta": {"OBJECT_NAME": "SKYSAT-C6", "OBJECT_ID": "2017-068F", "EPOCH": "2025-12-16T21:12:38.500416", "MEAN_MOTION": 15.31575575, "ECCENTRICITY": 0.00050984, "INCLINATION": 97.4318, "RA_OF_ASC_NODE": 122.3747, "ARG_OF_PERICENTER": 71.1498, "MEAN_ANOMALY": 289.0296, "EPHEMERIS_TYPE": 0, "CLASSIFICATION_TYPE": "U", "NORAD_CAT_ID": 42992, "ELEMENT_SET_NO": 999, "REV_AT_EPOCH": 45439, "BSTAR": 0.00029366379, "MEAN_MOTION_DOT": 8.88e-05, "MEAN_MOTION_DDOT": 0}, "tle": {"line1": "1 42992U 17068F   25350.88377894  .00008880  00000+0  29366-3 0  9999", "line2": "2 42992  97.4318 122.3747 0005098  71.1498 289.0296 15.31575575454393"}}, "geometry": {"type": "Point", "coordinates": [-90.46873757753202, -76.66497910121598]}}, {"type": "Feature", "properties": {"norad_id": 43111, "name": "CARTOSAT-2F", "group": "resource", "lat": 21.768600851074407, "lon": -127.99653479766097, "alt_km": 506.92008324181734, "timestamp": "2025-12-17T10:52:54.006587+00:00", "meta": {"OBJECT_NAME": "CARTOSAT-2F", "OBJECT_ID": "2018-004A", "EPOCH": "2025-12-16T23:07:27.205248", "MEAN_MOTION": 15.19318698, "ECCENTRICITY": 0.00012895, "INCLINATION": 97.4321, "RA_OF_ASC_NODE": 48.5333, "ARG_OF_PERICENTER": 140.8495, "MEAN_ANOMALY": 219.2833, "EPHEMERIS_TYPE": 0, "CLASSIFICATION_TYPE": "U", "NORAD_CAT_ID": 43111, "ELEMENT_SET_NO": 999, "REV_AT_EPOCH": 43966, "BSTAR": 0.00019976011, "MEAN_MOTION_DOT": 4.151e-05, "MEAN_MOTION_DDOT": 0}, "tle": {"line1": "1 43111U 18004A   25350.96350932  .00004151  00000+0  19976-3 0  9990", "line2": "2 43111  97.4321  48.5333 0001289 140.8495 219.2833 15.19318698439662"}}, "geometry": {"type": "Point", "coordinates": [-127.99653479766097, 21.768600851074407]}}, {"type": "Feature", "properties": {"norad_id": 43259, "name": "GAOFEN-1 02", "group": "resource", "lat": -78.64212989514058, "lon": 94.25919469816635, "alt_km": 647.6870167884881, "timestamp": "2025-12-17T10:52:54.006597+00:00", "meta": {"OBJECT_NAME": "GAOFEN-1 02", "OBJECT_ID": "2018-031A", "EPOCH": "2025-12-16T23:52:01.020864", "MEAN_MOTION": 14.76424156, "ECCENTRICITY": 0.0001973, "INCLINATION": 98.0807, "RA_OF_ASC_NODE": 48.7856, "ARG_OF_PERICENTER": 201.2888, "MEAN_ANOMALY": 158.824, "EPHEMERIS_TYPE": 0, "CLASSIFICATION_TYPE": "U", "NORAD_CAT_ID": 43259, "ELEMENT_SET_NO": 999, "REV_AT_EPOCH": 41581, "BSTAR": 0.00010840988, "MEAN_MOTION_DOT": 7.02e-06, "MEAN_MOTION_DDOT": 0}, "tle": {"line1": "1 43259U 18031A   25350.99445626  .00000702  00000+0  10841-3 0  9991", "line2": "2 43259  98.0807  48.7856 0001973 201.2888 158.8240 14.76424156415811"}}, "geometry": {"type": "Point", "coordinates": [94.25919469816635, -78.64212989514058]}}, {"type": "Feature", "properties": {"norad_id": 43260, "name": "GAOFEN-1 03", "group": "resource", "lat": 33.093335854249695, "lon": 43.80888157606626, "alt_km": 638.643893216692, "timestamp": "2025-12-17T10:52:54.006607+00:00", "meta": {"OBJECT_NAME": "GAOFEN-1 03", "OBJECT_ID": "2018-031B", "EPOCH": "2025-12-16T23:20:42.105120", "MEAN_MOTION": 14.76445636, "ECCENTRICITY": 0.00017841, "INCLINATION": 98.0794, "RA_OF_ASC_NODE": 48.64, "ARG_OF_PERICENTER": 301.0839, "MEAN_ANOMALY": 59.0195, "EPHEMERIS_TYPE": 0, "CLASSIFICATION_TYPE": "U", "NORAD_CAT_ID": 43260, "ELEMENT_SET_NO": 999, "REV_AT_EPOCH": 41580, "BSTAR": 0.00012428606, "MEAN_MOTION_DOT": 8.13e-06, "MEAN_MOTION_DDOT": 0}, "tle": {"line1": "1 43260U 18031B   25350.97270955  .00000813  00000+0  12429-3 0  9999", "line2": "2 43260  98.0794  48.6400 0001784 301.0839  59.0195 14.76445636415803"}}, "geometry": {"type": "Point", "coordinates": [43.80888157606626, 33.093335854249695]}}, {"type": "Feature", "properties": {"norad_id": 43262, "name": "GAOFEN-1 04", "group": "resource", "lat": 16.551790179243422, "lon": -128.2890408106825, "alt_km": 641.3086364142619, "timestamp": "2025-12-17T10:52:54.006617+00:00", "meta": {"OBJECT_NAME": "GAOFEN-1 04", "OBJECT_ID": "2018-031D", "EPOCH": "2025-12-17T00:23:10.214016", "MEAN_MOTION": 14.76460596, "ECCENTRICITY": 9.067e-05, "INCLINATION": 98.0808, "RA_OF_ASC_NODE": 48.8535, "ARG_OF_PERICENTER": 59.3136, "MEAN_ANOMALY": 300.8163, "EPHEMERIS_TYPE": 0, "CLASSIFICATION_TYPE": "U", "NORAD_CAT_ID": 43262, "ELEMENT_SET_NO": 999, "REV_AT_EPOCH": 41580, "BSTAR": 0.00015663007, "MEAN_MOTION_DOT": 1.038e-05, "MEAN_MOTION_DDOT": 0}, "tle": {"line1": "1 43262U 18031D   25351.01609044  .00001038  00000+0  15663-3 0  9995", "line2": "2 43262  98.0808  48.8535 0000906  59.3136 300.8163 14.76460596415804"}}, "geometry": {"type": "Point", "coordinates": [-128.2890408106825, 16.551790179243422]}}]}